#dP2019  7 16  0  0  0.00000000      96 __u+U IGS08 FIT  IAC
## 2062 172800.00000000   900.00000000 58680 0.0000000000000
+   98   C01C02C03C04C05C06C07C08C09C10C11C12C13C14C16E01E02
+        E03E04E05E07E08E09E11E12E13E14E15E18E19E21E24E25E26
+        E27E30E31E33E36G01G02G03G05G06G07G08G09G10G11G12G13
+        G14G15G16G17G18G19G20G21G22G23G24G25G26G27G28G29G30
+        G31G32J01J02J03J07R01R02R03R04R05R07R08R09R10R11R12
+        R13R14R15R16R17R18R19R20R21R22R23R24R26  0  0  0  0
++         0  0  0  0  0  0  0  0  0  0  0  0  0  0  0  0  0
++         0  0  0  0  0  0  0  0  0  0  0  0  0  0  0  0  0
++         0  0  0  0  0  0  0  0  0  0  0  0  0  0  0  0  0
++         0  0  0  0  0  0  0  0  0  0  0  0  0  0  0  0  0
++         0  0  0  0  0  0  0  0  0  0  0  0  0  0  0  0  0
++         0  0  0  0  0  0  0  0  0  0  0  0  0  0  0  0  0
%c M  cc GPS ccc cccc cccc cccc cccc ccccc ccccc ccccc ccccc
%c cc cc ccc ccc cccc cccc cccc cccc ccccc ccccc ccccc ccccc
%f  1.2500000  1.025000000  0.00000000000  0.000000000000000
%f  0.0000000  0.000000000  0.00000000000  0.000000000000000
%i    0    0    0    0      0      0      0      0         0
%i    0    0    0    0      0      0      0      0         0
/* INFORMATION & ANALYSIS CENTER (IAC)            FINAL DATA
/* S/V CLOCKS ARE ALIGNED TO GPS & GLONASS TIME RESPECTIVELY
/* USING THE BROADCAST EPHEMERIS                            
/* PCV:IGS14_2056 OL/AL:FES2004  NONE     YN ORB:CoN CLK:CoN
*  2019 07 16 12 15  0.00000000
PC01 -32328.325811  27062.555521  -1008.722013    844.139906
PC02   4396.350695  41916.995318   1262.072857     31.640465
PC03 -14836.435642  39496.142907    -54.763871    766.074293
PC04 -39632.353370  14395.778040   -479.975214    131.486205
PC05  21953.482072  36019.319392   1020.920825   -393.478900
PC06  -7302.803242  32799.000030  26038.364797    543.347367
PC07 -19373.807236  22091.729819 -30251.269371     -6.538967
PC08 -21480.489485  35360.634438   7250.490401    168.168266
PC09   3130.001982  39866.339390  14137.503031   -182.875062
PC10  -2313.945792  25689.000596 -33194.171876      7.742025
PC11  -3943.749087  27091.952043  -5187.377901    265.916717
PC12 -15207.793367   4124.892304 -22965.559552    870.014549
PC13 -11704.057240  36069.462971  18204.190585   -846.172403
PC14 -11708.652976  11548.296348  22608.239389    529.823083
PC16  -4749.270691  33936.298538  24717.949371   -890.326618
PE01 -29404.528862   1234.210243   3219.115198   -648.459797
PE02  29404.078113  -1277.024432  -3156.048959     69.330651
PE03  21647.736052   6350.055219 -19147.409893   -189.077414
PE04 -11464.617052  13118.724607  23940.750661   -324.684321
PE05  19235.723241  22281.823944  -3083.114100   -466.160337
PE07  -5610.166693 -25090.160215 -14666.550942   -227.715529
PE08  11135.641575 -13236.220255 -24011.975981   6322.895072
PE09   5869.984977  24990.888787  14733.714503   6376.948694
PE11  -4937.397035  27660.019424   9329.205444   5652.068955
PE12 -16613.258555  22408.865820  -9928.973724   6295.271293
PE13   4911.601076 -27686.094757  -9243.274354    389.847555
PE14  -3402.320712  27113.462198 -11940.882234   -645.135759
PE15  16337.130310 -22728.304193   9625.823976    902.788724
PE18  -8660.434238 -26189.209017  -3151.161798   -740.715085
PE19 -21970.515256  -8311.241172  18020.964125     -5.342423
PE21 -19287.554224 -10820.602598  19679.963349   -544.656182
PE24  -1966.563740  16549.005059 -24470.951356   5974.048440
PE25  19208.469368  10856.386598 -19720.329938   1740.670336
PE26  -9481.150297 -16505.585463 -22671.512647   4333.993919
PE27   2188.489380 -16523.650064  24465.409162    427.729574
PE30  22253.768701 -12488.056697  14993.312273   4706.192318
PE31 -22337.510608  12505.116858 -14863.663528   -466.733216
PE33 -18220.723843   4450.154113 -22900.019844   -470.043680
PE36   9422.712043  16431.868113  22745.895646    686.617624
PG01  12558.737544 -21759.247074  -8287.813466    -68.869752
PG02 -20194.614212  12452.521120 -11182.355908   -261.389242
PG03   5892.876453 -14152.527917 -21729.265495    180.787896
PG05 -23815.731031   3598.393185  11296.750702      0.002990
PG06 -16834.774738  -2039.086023 -20409.599798    147.913909
PG07   -652.065644 -18759.848530  18870.668254    -65.492155
PG08   7705.396955 -17273.206835  18590.345778   -151.406159
PG09  -7892.201024 -25347.535650   -662.736781    369.643697
PG10  22242.198361  11468.540659   9263.341063    -18.076238
PG11   8473.360595 -25280.726617   1002.789449   -559.807567
PG12  -9341.738705  12377.273849 -21754.454319    223.359074
PG13 -13592.806686   7612.451485  21394.904641    -54.352247
PG14  15806.893136   8812.052830 -19176.879531    -71.263611
PG15  -6496.731166  18409.426725  17566.901720   -300.537917
PG16  24080.651126   -440.536153  11478.441812    -56.691467
PG17 -14242.395107 -16846.042221 -14450.456290     89.660801
PG18  17034.528407 -20275.695385    247.211591     70.313766
PG19 -15349.858325 -10295.330785 -19358.864113   -293.444219
PG20  15387.604658  13877.708246  16601.320043    525.984186
PG21   6176.559711  16199.041708  20959.070496   -153.708466
PG22  13776.961349 -12261.010238 -18856.612494   -731.781014
PG23   1672.054138 -23073.532220 -12337.975483   -176.972766
PG24 -13561.537604  22119.739738  -4928.045400    -68.891028
PG25   5757.844494  15882.761281 -20768.112850     -1.325123
PG26  26304.660168   4090.295173   1397.162723    252.578799
PG27  14169.337270  -4206.395994  21954.812645   -186.534921
PG28 -20745.103924 -13600.122335   9953.702014    766.370265
PG29   3650.303561  26004.971043  -3970.741704    149.989072
PG30 -10510.855450 -11634.587209  21463.731503   -144.243337
PG31  18309.027229    643.694634 -19386.772896     23.933342
PG32  15827.136092  15648.612297 -14519.660830     -0.738740
PJ01 -27179.011810  21901.904220  28775.577360   -272.123800
PJ02 -35770.671432  19396.998994  -6653.547280     -1.208872
PJ03 -18803.028280  27893.945487 -20718.591288      0.031450
PJ07 -25378.158272  33679.800803     45.871871     -0.078315
PR01  -2457.311259  12034.736126  22359.495711     46.791658
PR02  14687.107967  18675.052255   9396.880958    378.591245
PR03  20599.413434  12691.000230  -8104.184037     -1.615163
PR04  14163.519726  -1105.725461 -21168.851440    314.001675
PR05    223.720619 -13303.583078 -21744.450790     32.004316
PR07 -20565.791477 -12289.047421   8744.475949    -23.508050
PR08 -14647.267676    516.082239  20931.126944     16.719634
PR09  -8655.044069  -8563.608107  22439.687222     80.399944
PR10 -20889.354603   -216.633346  14684.131227     54.528965
PR11 -23469.878470   9619.864806  -2940.110000    -72.859588
PR12 -12752.241019  13237.628303 -17649.226877     44.122882
PR13   6350.259909   9223.534377 -22931.626339    -25.973842
PR14  20967.465220     90.861106 -14497.493592     41.007214
PR15  23689.017254  -9213.681475   2138.573623    103.102642
PR16  12438.604662 -13604.080751  17667.340338      7.431006
PR17   9191.400741   7171.095102  22685.317858    244.094283
PR18  11404.033376 -11117.964137  19912.767684      0.441714
PR19   8102.600517 -23314.293213   6441.658666    -42.429551
PR20   -888.891244 -22116.578673 -12638.690015   -384.471726
PR21  -9302.000833  -6497.555558 -22854.187679    -60.130865
PR22 -11213.185183  13907.735603 -18265.719206    -28.677414
PR23  -5438.470207  24905.743675   -914.857809    241.026635
PR24   2238.631944  21094.343360  14145.371272   -182.673960
PR26    144.635819 -23506.206595  -9931.716890    -16.032655
EOF
